[Satellite]
VERSION=1.1
NAME=YUBILEINY (RS-30)
NICKNAME=YUBILEINY (RS-30)
TLE1=1 32953U 08025A   19317.65440408  .00000020  00000-0  75656-4 0  9994
TLE2=2 32953  82.5061  52.7393 0019881 164.3666 195.8037 12.43092179520697
STATUS=0
